{
  "norad_id": 52084,
  "name": "YAOGAN-34 02",
  "history": [
    {
      "epoch": "2026-03-28T23:26:32.144352Z",
      "apogee_km": 1122.6879133229277,
      "perigee_km": 1055.547883047073,
      "latitude_deg": -7.645025492238143e-06,
      "longitude_deg": -130.8510140690196,
      "height_km": 1057.6325464793758,
      "semi_major_axis_km": 7467.254898185,
      "eccentricity": 0.00449563,
      "inclination_deg": 63.3985,
      "raan_deg": 47.1724,
      "arg_perigee_deg": 352.0999,
      "mean_anomaly_deg": 7.9314,
      "mean_motion_rev_day": 13.45430589
    },
    {
      "epoch": "2026-03-29T04:47:37.339008Z",
      "apogee_km": 1122.7046298394862,
      "perigee_km": 1055.5307003233456,
      "latitude_deg": -1.3833975222087058e-05,
      "longitude_deg": 148.08476258704766,
      "height_km": 1057.6151449530169,
      "semi_major_axis_km": 7467.254665081416,
      "eccentricity": 0.0044979,
      "inclination_deg": 63.3986,
      "raan_deg": 46.5996,
      "arg_perigee_deg": 352.1047,
      "mean_anomaly_deg": 7.9266,
      "mean_motion_rev_day": 13.45430652
    },
    {
      "epoch": "2026-03-30T03:58:59.852064Z",
      "apogee_km": 1122.7680829204846,
      "perigee_km": 1055.467210241779,
      "latitude_deg": -1.159967102331565e-05,
      "longitude_deg": 156.80649740298577,
      "height_km": 1057.5510751782979,
      "semi_major_axis_km": 7467.254646581132,
      "eccentricity": 0.0045064,
      "inclination_deg": 63.3988,
      "raan_deg": 44.1175,
      "arg_perigee_deg": 352.1195,
      "mean_anomaly_deg": 7.9118,
      "mean_motion_rev_day": 13.45430657
    },
    {
      "epoch": "2026-03-30T05:46:01.587360Z",
      "apogee_km": 1122.7746838384446,
      "perigee_km": 1055.4606685247263,
      "latitude_deg": -1.0786535718928569e-05,
      "longitude_deg": 129.78500880028187,
      "height_km": 1057.5435692696046,
      "semi_major_axis_km": 7467.254676181586,
      "eccentricity": 0.00450728,
      "inclination_deg": 63.3988,
      "raan_deg": 43.9265,
      "arg_perigee_deg": 352.1322,
      "mean_anomaly_deg": 7.8992,
      "mean_motion_rev_day": 13.45430649
    },
    {
      "epoch": "2026-03-30T14:41:10.242240Z",
      "apogee_km": 1122.7988828108555,
      "perigee_km": 1055.4358849433747,
      "latitude_deg": 1.683358750313183e-05,
      "longitude_deg": -5.321932231772852,
      "height_km": 1057.5179254951074,
      "semi_major_axis_km": 7467.254383877115,
      "eccentricity": 0.00451056,
      "inclination_deg": 63.3989,
      "raan_deg": 42.9719,
      "arg_perigee_deg": 352.1458,
      "mean_anomaly_deg": 7.8857,
      "mean_motion_rev_day": 13.45430728
    },
    {
      "epoch": "2026-03-30T21:49:17.161824Z",
      "apogee_km": 1122.8146731808074,
      "perigee_km": 1055.4197171676815,
      "latitude_deg": 6.351488465705627e-05,
      "longitude_deg": -113.40757475965182,
      "height_km": 1057.5020672150538,
      "semi_major_axis_km": 7467.254195174244,
      "eccentricity": 0.0045127,
      "inclination_deg": 63.3989,
      "raan_deg": 42.2081,
      "arg_perigee_deg": 352.1438,
      "mean_anomaly_deg": 7.8877,
      "mean_motion_rev_day": 13.45430779
    },
    {
      "epoch": "2026-03-31T21:00:39.662784Z",
      "apogee_km": 1122.8770450215407,
      "perigee_km": 1055.3566423163165,
      "latitude_deg": 3.097162782076078e-05,
      "longitude_deg": -104.68580599614177,
      "height_km": 1057.4370870926257,
      "semi_major_axis_km": 7467.253843668928,
      "eccentricity": 0.0045211,
      "inclination_deg": 63.3981,
      "raan_deg": 39.726,
      "arg_perigee_deg": 352.1739,
      "mean_anomaly_deg": 7.8577,
      "mean_motion_rev_day": 13.45430874
    },
    {
      "epoch": "2026-04-01T20:12:02.162880Z",
      "apogee_km": 1122.942492961397,
      "perigee_km": 1055.2906689685697,
      "latitude_deg": 3.0023918314106442e-05,
      "longitude_deg": -95.96411800424809,
      "height_km": 1057.3696727543356,
      "semi_major_axis_km": 7467.253580964983,
      "eccentricity": 0.0045299,
      "inclination_deg": 63.3992,
      "raan_deg": 37.2438,
      "arg_perigee_deg": 352.2005,
      "mean_anomaly_deg": 7.8312,
      "mean_motion_rev_day": 13.45430945
    },
    {
      "epoch": "2026-04-02T21:10:26.387904Z",
      "apogee_km": 1123.008527797484,
      "perigee_km": 1055.2237905199063,
      "latitude_deg": -1.4288795113106341e-05,
      "longitude_deg": -114.26369779289097,
      "height_km": 1057.3008369246515,
      "semi_major_axis_km": 7467.253159158695,
      "eccentricity": 0.0045388,
      "inclination_deg": 63.3993,
      "raan_deg": 34.5708,
      "arg_perigee_deg": 352.2326,
      "mean_anomaly_deg": 7.7992,
      "mean_motion_rev_day": 13.45431059
    },
    {
      "epoch": "2026-04-02T22:57:28.115424Z",
      "apogee_km": 1123.0129642181973,
      "perigee_km": 1055.2189692934962,
      "latitude_deg": -3.1654404048782766e-05,
      "longitude_deg": -141.2850629974209,
      "height_km": 1057.295810256219,
      "semi_major_axis_km": 7467.2529667558465,
      "eccentricity": 0.00453942,
      "inclination_deg": 63.3994,
      "raan_deg": 34.3799,
      "arg_perigee_deg": 352.2358,
      "mean_anomaly_deg": 7.796,
      "mean_motion_rev_day": 13.45431111
    },
    {
      "epoch": "2026-04-03T20:21:48.879360Z",
      "apogee_km": 1123.0707137765012,
      "perigee_km": 1055.1605315250663,
      "latitude_deg": 3.813998772264967e-05,
      "longitude_deg": -105.54184830403145,
      "height_km": 1057.2348387788898,
      "semi_major_axis_km": 7467.252622650783,
      "eccentricity": 0.0045472,
      "inclination_deg": 63.3995,
      "raan_deg": 32.0887,
      "arg_perigee_deg": 352.2741,
      "mean_anomaly_deg": 7.758,
      "mean_motion_rev_day": 13.45431204
    },
    {
      "epoch": "2026-04-04T07:03:59.258304Z",
      "apogee_km": 1123.1010122376774,
      "perigee_km": 1055.1301960633464,
      "latitude_deg": -1.254011684738139e-05,
      "longitude_deg": 92.32972876860048,
      "height_km": 1057.2037244481648,
      "semi_major_axis_km": 7467.252604150512,
      "eccentricity": 0.00455126,
      "inclination_deg": 63.3995,
      "raan_deg": 30.9431,
      "arg_perigee_deg": 352.2873,
      "mean_anomaly_deg": 7.7448,
      "mean_motion_rev_day": 13.45431209
    },
    {
      "epoch": "2026-04-05T15:10:30.383040Z",
      "apogee_km": 1123.190214790182,
      "perigee_km": 1055.0398908947918,
      "latitude_deg": 2.2126942409663544e-07,
      "longitude_deg": -34.05530830185595,
      "height_km": 1057.1118475149553,
      "semi_major_axis_km": 7467.252052842487,
      "eccentricity": 0.00456328,
      "inclination_deg": 63.3998,
      "raan_deg": 27.5064,
      "arg_perigee_deg": 352.3174,
      "mean_anomaly_deg": 7.7148,
      "mean_motion_rev_day": 13.45431358
    },
    {
      "epoch": "2026-04-05T20:31:35.569056Z",
      "apogee_km": 1123.2037382839153,
      "perigee_km": 1055.026234199133,
      "latitude_deg": -4.065229472128186e-05,
      "longitude_deg": -115.11941331828743,
      "height_km": 1057.0976678230168,
      "semi_major_axis_km": 7467.251986241524,
      "eccentricity": 0.0045651,
      "inclination_deg": 63.3998,
      "raan_deg": 26.9337,
      "arg_perigee_deg": 352.3255,
      "mean_anomaly_deg": 7.7067,
      "mean_motion_rev_day": 13.45431376
    }
  ]
}